SBSS (USA 216)          
1 37168U 10048A   26068.88624904  .00004946  00000+0  24191-3 0  9993
2 37168  97.7474 312.3885 0082264 184.8326 306.5835 15.15724210837421
STARLINK-2655           
1 48449U 21040X   26068.56559856 -.00000433  00000+0 -24980-5 0  9996
2 48449  53.1635 178.7122 0001428  91.6237 268.4927 15.30196580266667
